INTELSAT 902 (IS-902)   
1 26900U 01039A   26155.12738286 -.00000273  00000+0  00000+0 0  9997
2 26900   6.0855  71.9400 0004270 358.4188 177.9689  1.00271726 90567
INTELSAT 904 (IS-904)   
1 27380U 02007A   26155.05981178 -.00000216  00000+0  00000+0 0  9995
2 27380   6.8873  69.3413 0007283 358.6598 174.5572  1.00271044 51639
DIRECTV 5 (TEMPO 1)     
1 27426U 02023A   26154.62667259 -.00000047  00000+0  00000+0 0  9999
2 27426   4.8432  75.4778 0003563   3.0335 289.0745  1.00271884 87981
INTELSAT 905 (IS-905)   
1 27438U 02027A   26154.63287483  .00000103  00000+0  00000+0 0  9996
2 27438   6.7196  69.9626 0004265  10.2968 262.4516  1.00271994 51225
GALAXY 3C (G-3C)        
1 27445U 02030A   26154.90458933 -.00000142  00000+0  00000+0 0  9992
2 27445   3.6963  78.1546 0001979  28.1667  16.8376  1.00271986 46362
INTELSAT 906 (IS-906)   
1 27513U 02041A   26154.95669882  .00000023  00000+0  00000+0 0  9999
2 27513   5.7702  73.0820 0004746 356.2915 231.5963  1.00271308 86895
GALAXY 13 (HORIZONS-1)  
1 27954U 03044A   26155.10759012  .00000144  00000+0  00000+0 0  9999
2 27954   1.3864  84.0158 0002063 341.5871  75.6678  1.00271336 46447
INTELSAT 10-02          
1 28358U 04022A   26155.06569512  .00000001  00000+0  00000+0 0  9996
2 28358   0.0110 351.1008 0000277 123.8110 160.2515  1.00270913 80427
DIRECTV 8               
1 28659U 05019A   26155.18308764  .00000013  00000+0  00000+0 0  9993
2 28659   0.0022   2.5841 0003158  76.3808 120.5375  1.00271337 76948
GALAXY 28 (G-28)        
1 28702U 05022A   26155.13193448 -.00000189  00000+0  00000+0 0  9997
2 28702   3.2649  79.0912 0003233   0.1428 193.7437  1.00269229 51842
GALAXY 16 (G-16)        
1 29236U 06023A   26155.04644678 -.00000115  00000+0  00000+0 0  9997
2 29236   0.0274 206.5568 0003172 236.7234  86.9435  1.00273894 72849
DIRECTV 9S              
1 29494U 06043A   26155.18794779 -.00000102  00000+0  00000+0 0  9994
2 29494   2.3871  81.0569 0005207   3.2664 134.7901  1.00272021 51258
GALAXY 17 (G-17)        
1 31307U 07016B   26155.12051499 -.00000195  00000+0  00000+0 0  9992
2 31307   2.9392  80.0641 0005002  12.4020 118.4898  1.00270780 69678
INTELSAT 11 (IS-11)     
1 32253U 07044B   26155.10204343 -.00000125  00000+0  00000+0 0  9993
2 32253   3.5313  78.8269 0001610  73.4592 320.2860  0.99053422 68324
HORIZONS-2              
1 32388U 07063B   26155.17669625 -.00000242  00000+0  00000+0 0  9998
2 32388   2.5685  80.7829 0004229 351.2890 170.3820  1.00273999 67689
DIRECTV 11              
1 32729U 08013A   26154.97511618 -.00000114  00000+0  00000+0 0  9996
2 32729   0.0170 148.4619 0000515 243.0214 112.8090  1.00271261 45463
GALAXY 18 (G-18)        
1 32951U 08024A   26155.18308764  .00000037  00000+0  00000+0 0  9998
2 32951   0.0151  14.2058 0003307  68.1404 113.1911  1.00271630 45720
INTELSAT 25 (IS-25)     
1 33153U 08034A   26155.10169676 -.00000147  00000+0  00000+0 0  9996
2 33153   2.6745  80.4584 0002222  56.5708 332.2960  0.99026875 65562
GALAXY 19 (G-19)        
1 33376U 08045A   26155.18794779 -.00000127  00000+0  00000+0 0  9999
2 33376   0.0163  30.0971 0003494  61.1146 132.0917  1.00270623 64771
FM-5                    
1 35493U 09034A   26154.62117243 -.00000188  00000+0  00000+0 0  9990
2 35493   0.0118 299.7148 0000329 342.6474 107.1701  1.00269774 46508
INTELSAT 14 (IS-14)     
1 36097U 09064A   26155.12842287 -.00000261  00000+0  00000+0 0  9995
2 36097   0.0112 303.1060 0002968 145.2136 165.4990  1.00271488 60473
INTELSAT 15 (IS-15)     
1 36106U 09067A   26155.08289000 -.00000174  00000+0  00000+0 0  9995
2 36106   0.0121 312.6187 0002511 122.6811 292.2235  1.00273568 41091
DIRECTV 12              
1 36131U 09075A   26155.11695014 -.00000092  00000+0  00000+0 0  9991
2 36131   0.0425 145.4768 0000313 256.6828 149.7952  1.00273346 46425
INTELSAT 16 (IS-16)     
1 36397U 10006A   26155.12224831 -.00000233  00000+0  00000+0 0  9994
2 36397   0.0123  20.6118 0002404  62.8393 136.9469  1.00270686 59524
XM-5                    
1 37185U 10053A   26155.15044869 -.00000011  00000+0  00000+0 0  9990
2 37185   0.0621 274.2683 0003021 276.9495   0.3533  1.00273109 57352
INTELSAT 17 (IS-17)     
1 37238U 10065B   26155.15039456  .00000010  00000+0  00000+0 0  9996
2 37238   0.0091 282.9347 0002388 153.6832 296.1153  1.00271730 53117
INTELSAT 28 (IS-28)     
1 37392U 11016A   26155.05972513 -.00000213  00000+0  00000+0 0  9999
2 37392   1.7721  82.7826 0004090 350.2513 169.3065  1.00270381 53155
INTELSAT 18 (IS-18)     
1 37834U 11056A   26155.10169676  .00000065  00000+0  00000+0 0  9992
2 37834   0.0143 291.1595 0002260 153.1273  24.8792  1.00271454 53687
INTELSAT 22 (IS-22)     
1 38098U 12011A   26155.08020332 -.00000047  00000+0  00000+0 0  9990
2 38098   0.0095  30.9516 0002039  41.9636 280.5789  1.00271925  7059
INTELSAT 19 (IS-19)     
1 38356U 12030A   26154.88491590 -.00000044  00000+0  00000+0 0  9990
2 38356   0.0187 330.5605 0003248 109.3755 296.9797  1.00272187 50318
INTELSAT 20 (IS-20)     
1 38740U 12043A   26155.15091457 -.00000013  00000+0  00000+0 0  9996
2 38740   0.0092  91.9618 0001700  81.0119 202.4550  1.00273146 50611
